TEVEL2-1                
1 63217U 25052H   26068.64782323  .00020683  00000+0  70600-3 0  9994
2 63217  97.3991 324.7682 0004767 104.8919 255.2849 15.30341923 54855
STARLINK-34114          
1 63905U 25095R   26067.38254070  .00038318  00000+0  13938-2 0  9992
2 63905  43.0021 183.9699 0000894 231.7805 128.2966 15.27602250 47574
